[{"OBJECT_NAME":"STARLINK-35686","OBJECT_ID":"2025-257AD","EPOCH":"2026-03-09T16:22:18.087456","MEAN_MOTION":15.30206182,"ECCENTRICITY":4.482e-5,"INCLINATION":53.1594,"RA_OF_ASC_NODE":216.9578,"ARG_OF_PERICENTER":125.3337,"MEAN_ANOMALY":234.7706,"EPHEMERIS_TYPE":0,"CLASSIFICATION_TYPE":"U","NORAD_CAT_ID":66407,"ELEMENT_SET_NO":999,"REV_AT_EPOCH":1973,"BSTAR":0.00084136399,"MEAN_MOTION_DOT":0.00024647,"MEAN_MOTION_DDOT":0},{"OBJECT_NAME":"BREEZE-M DEB","OBJECT_ID":"2006-006CU","EPOCH":"2026-03-07T22:14:14.143776","MEAN_MOTION":7.29966514,"ECCENTRICITY":0.39604911,"INCLINATION":51.5588,"RA_OF_ASC_NODE":237.796,"ARG_OF_PERICENTER":70.3802,"MEAN_ANOMALY":327.6093,"EPHEMERIS_TYPE":0,"CLASSIFICATION_TYPE":"U","NORAD_CAT_ID":36962,"ELEMENT_SET_NO":999,"REV_AT_EPOCH":25364,"BSTAR":0.027340128,"MEAN_MOTION_DOT":0.00073308,"MEAN_MOTION_DDOT":0}]
